OBJECT_NAME,OBJECT_ID,EPOCH,MEAN_MOTION,ECCENTRICITY,INCLINATION,RA_OF_ASC_NODE,ARG_OF_PERICENTER,MEAN_ANOMALY,EPHEMERIS_TYPE,CLASSIFICATION_TYPE,NORAD_CAT_ID,ELEMENT_SET_NO,REV_AT_EPOCH,BSTAR,MEAN_MOTION_DOT,MEAN_MOTION_DDOT
ONEWEB-0236,2021-045AG,2026-06-25T11:11:10.125888,13.15548931,.00021851,87.8997,257.5569,99.5510,260.5868,0,U,48797,999,24534,.59780114E-4,.35E-6,0
ONEWEB-0248,2021-045AH,2026-06-25T11:29:24.898560,13.15548404,.00020042,87.9010,257.5389,114.7586,245.3753,0,U,48798,999,24550,-.19622132E-3,-.61E-6,0
ONEWEB-0225,2021-045AJ,2026-06-25T12:01:21.660960,13.15549807,.00016812,87.9002,257.5423,114.9053,245.2252,0,U,48799,999,24551,.18896877E-3,.84E-6,0
ONEWEB-0215,2021-045AK,2026-06-25T11:18:00.162144,13.15547496,.00017742,87.9012,257.5313,120.2320,239.8987,0,U,48800,999,24538,-.86560539E-4,-.2E-6,0
ONEWEB-0216,2021-045AL,2026-06-25T11:31:41.920320,13.15549491,.00020193,87.9008,257.5440,98.1659,261.9700,0,U,48801,999,24539,-.1303459E-3,-.36E-6,0
ONEWEB-0239,2021-045AM,2026-06-25T11:38:32.363520,13.15549656,.00020485,87.8997,257.5485,123.3717,236.7609,0,U,48802,999,24543,-.21342007E-3,-.68E-6,0
ONEWEB-0249,2021-060A,2026-06-25T09:54:04.224096,13.16595831,.00021334,87.9088,227.1448,100.1703,259.9668,0,U,48967,999,24069,.14772476E-3,.69E-6,0
ONEWEB-0250,2021-060B,2026-06-25T12:48:16.226496,13.25834480,.00030392,87.9091,224.8501,106.0002,254.1470,0,U,48968,999,24132,.47105057E-4,.34E-6,0
ONEWEB-0252,2021-060D,2026-06-25T12:27:59.074272,13.16594600,.00018381,87.9095,227.1159,93.0410,267.0932,0,U,48970,999,24075,.33202221E-3,.14E-5,0
ONEWEB-0253,2021-060E,2026-06-25T12:12:01.630080,13.16594145,.00021371,87.9091,227.1234,99.7354,260.4018,0,U,48971,999,24068,.24322143E-3,.106E-5,0
ONEWEB-0254,2021-060F,2026-06-25T12:25:41.986848,13.16595186,.00020688,87.9095,227.1192,106.0308,254.1051,0,U,48972,999,24068,.23603107E-3,.103E-5,0
ONEWEB-0255,2021-060G,2026-06-25T13:20:24.967392,13.16595270,.00020035,87.9090,227.1184,101.8291,258.3065,0,U,48973,999,24076,-.13782743E-3,-.4E-6,0
ONEWEB-0256,2021-060H,2026-06-25T12:08:36.076704,13.16593930,.00020128,87.9085,227.1317,93.2947,266.8415,0,U,48974,999,24072,.34839611E-3,.146E-5,0
ONEWEB-0257,2021-060J,2026-06-25T12:55:19.876800,13.16595477,.00019183,87.9092,227.1131,98.2704,261.8644,0,U,48975,999,24068,.18282361E-3,.83E-6,0
ONEWEB-0258,2021-060K,2026-06-25T12:57:37.011744,13.16594909,.00021096,87.9093,227.1247,97.9530,262.1841,0,U,48976,999,24069,-.54660148E-4,-.8E-7,0
ONEWEB-0259,2021-060L,2026-06-25T12:48:29.731680,13.16595969,.00021126,87.9092,227.1249,101.3520,258.7848,0,U,48977,999,24072,.2804591E-3,.12E-5,0
ONEWEB-0260,2021-060M,2026-06-25T12:35:57.167808,13.16595285,.00018334,87.9089,227.1280,86.6560,273.4780,0,U,48978,999,24070,.52589933E-3,.214E-5,0
ONEWEB-0261,2021-060N,2026-06-25T10:03:11.584512,13.16592834,.00017692,87.9085,227.1492,102.4812,257.6517,0,U,48979,999,24074,.9433189E-4,.49E-6,0
ONEWEB-0262,2021-060P,2026-06-25T13:13:34.353984,13.16595843,.00021772,87.9091,227.1093,103.5910,256.5464,0,U,48980,999,24072,-.92759792E-4,-.23E-6,0
ONEWEB-0263,2021-060Q,2026-06-25T12:09:44.039808,13.16595064,.00018604,87.9091,227.1296,105.7665,254.3671,0,U,48981,999,24068,.22043031E-3,.97E-6,0
ONEWEB-0264,2021-060R,2026-06-25T13:03:18.726336,13.16595691,.0001829,87.9091,227.1251,95.6128,264.5212,0,U,48982,999,24069,-.15843194E-3,-.48E-6,0
ONEWEB-0266,2021-060T,2026-06-25T09:55:13.667232,13.16595246,.00021405,87.9090,227.1417,96.3493,263.7882,0,U,48984,999,24066,.22058395E-3,.97E-6,0
ONEWEB-0267,2021-060U,2026-06-25T12:00:37.144224,13.16595356,.00018353,87.9090,227.1211,100.1731,259.9607,0,U,48985,999,24068,.10774082E-3,.54E-6,0
ONEWEB-0268,2021-060V,2026-06-25T13:04:26.136480,13.16593015,.00019984,87.9093,227.1221,93.1486,266.9873,0,U,48986,999,24095,-.37799762E-4,-.2E-7,0
ONEWEB-0269,2021-060W,2026-06-25T12:37:05.709792,13.16595240,.00021095,87.9086,227.1274,91.1504,268.9869,0,U,48987,999,24072,.21305527E-3,.94E-6,0
ONEWEB-0270,2021-060X,2026-06-25T13:02:10.626720,13.16595436,.00020058,87.9094,227.1241,107.2873,252.8478,0,U,48988,999,24076,-.57492022E-4,-.9E-7,0
ONEWEB-0271,2021-060Y,2026-06-25T12:43:56.352576,13.16595286,.00019073,87.9090,227.1161,102.3370,257.7975,0,U,48989,999,24076,.64299216E-4,.37E-6,0
ONEWEB-0272,2021-060Z,2026-06-25T13:15:51.723936,13.16592905,.00017898,87.9084,227.1238,92.6639,267.4697,0,U,48990,999,24071,-.11058469E-3,-.29E-6,0
ONEWEB-0273,2021-060AA,2026-06-25T11:58:20.199360,13.16595041,.0002005,87.9091,227.1339,101.0725,259.0632,0,U,48991,999,24068,.73019625E-4,.41E-6,0
ONEWEB-0274,2021-060AB,2026-06-25T12:34:48.906624,13.16594531,.00018295,87.9085,227.1304,89.9049,270.2291,0,U,48992,999,24072,.26459376E-3,.114E-5,0
