[
  {
    "name": "ONEWEB-0236",
    "noradId": "48797",
    "line1": "1 48797U 21045AG  26176.46608942  .00000035  00000+0  59780-4 0  9998",
    "line2": "2 48797  87.8997 257.5569 0002185  99.5510 260.5868 13.15548931245342"
  },
  {
    "name": "ONEWEB-0248",
    "noradId": "48798",
    "line1": "1 48798U 21045AH  26176.47876040 -.00000061  00000+0 -19622-3 0  9997",
    "line2": "2 48798  87.9010 257.5389 0002004 114.7586 245.3753 13.15548404245500"
  },
  {
    "name": "ONEWEB-0225",
    "noradId": "48799",
    "line1": "1 48799U 21045AJ  26176.50094515  .00000084  00000+0  18897-3 0  9997",
    "line2": "2 48799  87.9002 257.5423 0001681 114.9053 245.2252 13.15549807245514"
  },
  {
    "name": "ONEWEB-0215",
    "noradId": "48800",
    "line1": "1 48800U 21045AK  26176.47083521 -.00000020  00000+0 -86561-4 0  9997",
    "line2": "2 48800  87.9012 257.5313 0001774 120.2320 239.8987 13.15547496245387"
  },
  {
    "name": "ONEWEB-0216",
    "noradId": "48801",
    "line1": "1 48801U 21045AL  26176.48034630 -.00000036  00000+0 -13035-3 0  9998",
    "line2": "2 48801  87.9008 257.5440 0002019  98.1659 261.9700 13.15549491245392"
  },
  {
    "name": "ONEWEB-0239",
    "noradId": "48802",
    "line1": "1 48802U 21045AM  26176.48509680 -.00000068  00000+0 -21342-3 0  9996",
    "line2": "2 48802  87.8997 257.5485 0002048 123.3717 236.7609 13.15549656245432"
  },
  {
    "name": "ONEWEB-0249",
    "noradId": "48967",
    "line1": "1 48967U 21060A   26176.41254889  .00000069  00000+0  14772-3 0  9994",
    "line2": "2 48967  87.9088 227.1448 0002133 100.1703 259.9668 13.16595831240693"
  },
  {
    "name": "ONEWEB-0250",
    "noradId": "48968",
    "line1": "1 48968U 21060B   26176.53352114  .00000034  00000+0  47105-4 0  9997",
    "line2": "2 48968  87.9091 224.8501 0003039 106.0002 254.1470 13.25834480241320"
  },
  {
    "name": "ONEWEB-0252",
    "noradId": "48970",
    "line1": "1 48970U 21060D   26176.51943373  .00000140  00000+0  33202-3 0  9991",
    "line2": "2 48970  87.9095 227.1159 0001838  93.0410 267.0932 13.16594600240754"
  },
  {
    "name": "ONEWEB-0253",
    "noradId": "48971",
    "line1": "1 48971U 21060E   26176.50835220  .00000106  00000+0  24322-3 0  9997",
    "line2": "2 48971  87.9091 227.1234 0002137  99.7354 260.4018 13.16594145240686"
  },
  {
    "name": "ONEWEB-0254",
    "noradId": "48972",
    "line1": "1 48972U 21060F   26176.51784707  .00000103  00000+0  23603-3 0  9990",
    "line2": "2 48972  87.9095 227.1192 0002068 106.0308 254.1051 13.16595186240681"
  },
  {
    "name": "ONEWEB-0255",
    "noradId": "48973",
    "line1": "1 48973U 21060G   26176.55584453 -.00000040  00000+0 -13783-3 0  9991",
    "line2": "2 48973  87.9090 227.1184 0002003 101.8291 258.3065 13.16595270240765"
  },
  {
    "name": "ONEWEB-0256",
    "noradId": "48974",
    "line1": "1 48974U 21060H   26176.50597311  .00000146  00000+0  34840-3 0  9996",
    "line2": "2 48974  87.9085 227.1317 0002012  93.2947 266.8415 13.16593930240720"
  },
  {
    "name": "ONEWEB-0257",
    "noradId": "48975",
    "line1": "1 48975U 21060J   26176.53842450  .00000083  00000+0  18282-3 0  9999",
    "line2": "2 48975  87.9092 227.1131 0001918  98.2704 261.8644 13.16595477240685"
  },
  {
    "name": "ONEWEB-0258",
    "noradId": "48976",
    "line1": "1 48976U 21060K   26176.54001171 -.00000008  00000+0 -54660-4 0  9998",
    "line2": "2 48976  87.9093 227.1247 0002109  97.9530 262.1841 13.16594909240694"
  },
  {
    "name": "ONEWEB-0259",
    "noradId": "48977",
    "line1": "1 48977U 21060L   26176.53367745  .00000120  00000+0  28046-3 0  9991",
    "line2": "2 48977  87.9092 227.1249 0002112 101.3520 258.7848 13.16595969240728"
  },
  {
    "name": "ONEWEB-0260",
    "noradId": "48978",
    "line1": "1 48978U 21060M   26176.52496722  .00000214  00000+0  52590-3 0  9994",
    "line2": "2 48978  87.9089 227.1280 0001833  86.6560 273.4780 13.16595285240706"
  },
  {
    "name": "ONEWEB-0261",
    "noradId": "48979",
    "line1": "1 48979U 21060N   26176.41888408  .00000049  00000+0  94332-4 0  9996",
    "line2": "2 48979  87.9085 227.1492 0001769 102.4812 257.6517 13.16592834240746"
  },
  {
    "name": "ONEWEB-0262",
    "noradId": "48980",
    "line1": "1 48980U 21060P   26176.55109206 -.00000023  00000+0 -92760-4 0  9992",
    "line2": "2 48980  87.9091 227.1093 0002177 103.5910 256.5464 13.16595843240727"
  },
  {
    "name": "ONEWEB-0263",
    "noradId": "48981",
    "line1": "1 48981U 21060Q   26176.50675972  .00000097  00000+0  22043-3 0  9991",
    "line2": "2 48981  87.9091 227.1296 0001860 105.7665 254.3671 13.16595064240688"
  },
  {
    "name": "ONEWEB-0264",
    "noradId": "48982",
    "line1": "1 48982U 21060R   26176.54396674 -.00000048  00000+0 -15843-3 0  9993",
    "line2": "2 48982  87.9091 227.1251 0001829  95.6128 264.5212 13.16595691240697"
  },
  {
    "name": "ONEWEB-0266",
    "noradId": "48984",
    "line1": "1 48984U 21060T   26176.41335263  .00000097  00000+0  22058-3 0  9996",
    "line2": "2 48984  87.9090 227.1417 0002140  96.3493 263.7882 13.16595246240669"
  },
  {
    "name": "ONEWEB-0267",
    "noradId": "48985",
    "line1": "1 48985U 21060U   26176.50042991  .00000054  00000+0  10774-3 0  9995",
    "line2": "2 48985  87.9090 227.1211 0001835 100.1731 259.9607 13.16595356240687"
  },
  {
    "name": "ONEWEB-0268",
    "noradId": "48986",
    "line1": "1 48986U 21060V   26176.54474695 -.00000002  00000+0 -37800-4 0  9995",
    "line2": "2 48986  87.9093 227.1221 0001998  93.1486 266.9873 13.16593015240953"
  },
  {
    "name": "ONEWEB-0269",
    "noradId": "48987",
    "line1": "1 48987U 21060W   26176.52576053  .00000094  00000+0  21306-3 0  9997",
    "line2": "2 48987  87.9086 227.1274 0002109  91.1504 268.9869 13.16595240240722"
  },
  {
    "name": "ONEWEB-0270",
    "noradId": "48988",
    "line1": "1 48988U 21060X   26176.54317855 -.00000009  00000+0 -57492-4 0  9997",
    "line2": "2 48988  87.9094 227.1241 0002005 107.2873 252.8478 13.16595436240768"
  },
  {
    "name": "ONEWEB-0271",
    "noradId": "48989",
    "line1": "1 48989U 21060Y   26176.53051334  .00000037  00000+0  64299-4 0  9996",
    "line2": "2 48989  87.9090 227.1161 0001907 102.3370 257.7975 13.16595286240763"
  },
  {
    "name": "ONEWEB-0272",
    "noradId": "48990",
    "line1": "1 48990U 21060Z   26176.55268199 -.00000029  00000+0 -11058-3 0  9996",
    "line2": "2 48990  87.9084 227.1238 0001789  92.6639 267.4697 13.16592905240719"
  },
  {
    "name": "ONEWEB-0273",
    "noradId": "48991",
    "line1": "1 48991U 21060AA  26176.49884490  .00000041  00000+0  73020-4 0  9998",
    "line2": "2 48991  87.9091 227.1339 0002005 101.0725 259.0632 13.16595041240689"
  },
  {
    "name": "ONEWEB-0274",
    "noradId": "48992",
    "line1": "1 48992U 21060AB  26176.52417716  .00000114  00000+0  26459-3 0  9990",
    "line2": "2 48992  87.9085 227.1304 0001829  89.9049 270.2291 13.16594531240725"
  }
]